1 29096U 93016AK  10309.33008863 +.00002115 +00000-0 +73761-3 0  9995
2 29096 070.9372 301.6282 0108179 352.1807 007.7734 14.33235797351472
1 29096U 93016AK  10313.30825152  .00002192  00000-0  76509-3 0  9993
2 29096 070.9426 292.9960 0106459 345.6068 014.2559 14.33255394352038
1 29096U 93016AK  10320.56651339  .00002305  00000-0  81052-3 0  9998
2 29096 070.9454 277.2673 0098052 337.3495 022.4441 14.33292155353079
